CCSDS_OMM_VERS = 2.0
CREATION_DATE  = 
ORIGINATOR     = 

OBJECT_NAME    = SL-3 R/B
OBJECT_ID      = 1982-079B
CENTER_NAME    = EARTH
REF_FRAME      = TEME
TIME_SYSTEM    = UTC
MEAN_ELEMENT_THEORY = SGP/SGP4

EPOCH          = 2025-11-24T02:13:46.375104
MEAN_MOTION    = 15.23291298
ECCENTRICITY   = .0026042
INCLINATION    = 81.1462
RA_OF_ASC_NODE = 317.6380
ARG_OF_PERICENTER = 159.6034
MEAN_ANOMALY   = 200.6245

EPHEMERIS_TYPE = 0
CLASSIFICATION_TYPE = U
NORAD_CAT_ID   = 13403
ELEMENT_SET_NO = 999
REV_AT_EPOCH   = 36161
BSTAR          = .23245E-3
MEAN_MOTION_DOT = .559E-4
MEAN_MOTION_DDOT = 0

CCSDS_OMM_VERS = 2.0
CREATION_DATE  = 
ORIGINATOR     = 

OBJECT_NAME    = SL-14 R/B
OBJECT_ID      = 1982-092B
CENTER_NAME    = EARTH
REF_FRAME      = TEME
TIME_SYSTEM    = UTC
MEAN_ELEMENT_THEORY = SGP/SGP4

EPOCH          = 2025-11-23T20:00:04.405248
MEAN_MOTION    = 14.86526155
ECCENTRICITY   = .0018937
INCLINATION    = 82.5689
RA_OF_ASC_NODE = 240.3911
ARG_OF_PERICENTER = 294.8416
MEAN_ANOMALY   = 127.3934

EPHEMERIS_TYPE = 0
CLASSIFICATION_TYPE = U
NORAD_CAT_ID   = 13553
ELEMENT_SET_NO = 999
REV_AT_EPOCH   = 31320
BSTAR          = .72475E-4
MEAN_MOTION_DOT = .667E-5
MEAN_MOTION_DDOT = 0

CCSDS_OMM_VERS = 2.0
CREATION_DATE  = 
ORIGINATOR     = 

OBJECT_NAME    = SL-3 R/B
OBJECT_ID      = 1983-010B
CENTER_NAME    = EARTH
REF_FRAME      = TEME
TIME_SYSTEM    = UTC
MEAN_ELEMENT_THEORY = SGP/SGP4

EPOCH          = 2025-11-23T21:38:53.148192
MEAN_MOTION    = 15.42765537
ECCENTRICITY   = .0018042
INCLINATION    = 81.1026
RA_OF_ASC_NODE = 131.5999
ARG_OF_PERICENTER = 56.2340
MEAN_ANOMALY   = 304.0618

EPHEMERIS_TYPE = 0
CLASSIFICATION_TYPE = U
NORAD_CAT_ID   = 13819
ELEMENT_SET_NO = 999
REV_AT_EPOCH   = 34161
BSTAR          = .33326E-3
MEAN_MOTION_DOT = .14694E-3
MEAN_MOTION_DDOT = 0

CCSDS_OMM_VERS = 2.0
CREATION_DATE  = 
ORIGINATOR     = 

OBJECT_NAME    = SL-3 R/B
OBJECT_ID      = 1983-075B
CENTER_NAME    = EARTH
REF_FRAME      = TEME
TIME_SYSTEM    = UTC
MEAN_ELEMENT_THEORY = SGP/SGP4

EPOCH          = 2025-11-24T02:07:32.879136
MEAN_MOTION    = 15.35608251
ECCENTRICITY   = .0021009
INCLINATION    = 97.6103
RA_OF_ASC_NODE = 323.9537
ARG_OF_PERICENTER = 245.1753
MEAN_ANOMALY   = 114.7305

EPHEMERIS_TYPE = 0
CLASSIFICATION_TYPE = U
NORAD_CAT_ID   = 14208
ELEMENT_SET_NO = 999
REV_AT_EPOCH   = 31393
BSTAR          = .3387E-3
MEAN_MOTION_DOT = .11727E-3
MEAN_MOTION_DDOT = 0

CCSDS_OMM_VERS = 2.0
CREATION_DATE  = 
ORIGINATOR     = 

OBJECT_NAME    = COSMOS 1536
OBJECT_ID      = 1984-013A
CENTER_NAME    = EARTH
REF_FRAME      = TEME
TIME_SYSTEM    = UTC
MEAN_ELEMENT_THEORY = SGP/SGP4

EPOCH          = 2025-11-24T01:45:50.706720
MEAN_MOTION    = 15.22227021
ECCENTRICITY   = .0013512
INCLINATION    = 82.5464
RA_OF_ASC_NODE = 212.6699
ARG_OF_PERICENTER = 299.2760
MEAN_ANOMALY   = 60.7125

EPHEMERIS_TYPE = 0
CLASSIFICATION_TYPE = U
NORAD_CAT_ID   = 14699
ELEMENT_SET_NO = 999
REV_AT_EPOCH   = 25654
BSTAR          = .26661E-3
MEAN_MOTION_DOT = .6173E-4
MEAN_MOTION_DDOT = 0

CCSDS_OMM_VERS = 2.0
CREATION_DATE  = 
ORIGINATOR     = 

OBJECT_NAME    = SL-14 R/B
OBJECT_ID      = 1984-027B
CENTER_NAME    = EARTH
REF_FRAME      = TEME
TIME_SYSTEM    = UTC
MEAN_ELEMENT_THEORY = SGP/SGP4

EPOCH          = 2025-11-24T00:52:12.622080
MEAN_MOTION    = 14.85845194
ECCENTRICITY   = .0017077
INCLINATION    = 82.5413
RA_OF_ASC_NODE = 344.0980
ARG_OF_PERICENTER = 327.8574
MEAN_ANOMALY   = 32.1600

EPHEMERIS_TYPE = 0
CLASSIFICATION_TYPE = U
NORAD_CAT_ID   = 14820
ELEMENT_SET_NO = 999
REV_AT_EPOCH   = 23194
BSTAR          = .61705E-4
MEAN_MOTION_DOT = .562E-5
MEAN_MOTION_DDOT = 0

CCSDS_OMM_VERS = 2.0
CREATION_DATE  = 
ORIGINATOR     = 

OBJECT_NAME    = SL-8 R/B
OBJECT_ID      = 1985-006B
CENTER_NAME    = EARTH
REF_FRAME      = TEME
TIME_SYSTEM    = UTC
MEAN_ELEMENT_THEORY = SGP/SGP4

EPOCH          = 2025-11-23T20:01:40.876896
MEAN_MOTION    = 14.37704165
ECCENTRICITY   = .0017906
INCLINATION    = 74.0451
RA_OF_ASC_NODE = 95.9156
ARG_OF_PERICENTER = 33.8302
MEAN_ANOMALY   = 77.5809

EPHEMERIS_TYPE = 0
CLASSIFICATION_TYPE = U
NORAD_CAT_ID   = 15483
ELEMENT_SET_NO = 999
REV_AT_EPOCH   = 13881
BSTAR          = .12803E-3
MEAN_MOTION_DOT = .359E-5
MEAN_MOTION_DDOT = 0

CCSDS_OMM_VERS = 2.0
CREATION_DATE  = 
ORIGINATOR     = 

OBJECT_NAME    = SL-12 R/B(2)
OBJECT_ID      = 1985-042D
CENTER_NAME    = EARTH
REF_FRAME      = TEME
TIME_SYSTEM    = UTC
MEAN_ELEMENT_THEORY = SGP/SGP4

EPOCH          = 2025-11-24T00:47:04.587072
MEAN_MOTION    = 14.21943024
ECCENTRICITY   = .0037566
INCLINATION    = 71.1077
RA_OF_ASC_NODE = 310.9412
ARG_OF_PERICENTER = 288.8881
MEAN_ANOMALY   = 128.1290

EPHEMERIS_TYPE = 0
CLASSIFICATION_TYPE = U
NORAD_CAT_ID   = 15772
ELEMENT_SET_NO = 999
REV_AT_EPOCH   = 9937
BSTAR          = .47104E-4
MEAN_MOTION_DOT = .57E-6
MEAN_MOTION_DDOT = 0

CCSDS_OMM_VERS = 2.0
CREATION_DATE  = 
ORIGINATOR     = 

OBJECT_NAME    = SL-14 R/B
OBJECT_ID      = 1985-069B
CENTER_NAME    = EARTH
REF_FRAME      = TEME
TIME_SYSTEM    = UTC
MEAN_ELEMENT_THEORY = SGP/SGP4

EPOCH          = 2025-11-23T22:02:34.199232
MEAN_MOTION    = 14.86290866
ECCENTRICITY   = .0018827
INCLINATION    = 82.5248
RA_OF_ASC_NODE = 124.3972
ARG_OF_PERICENTER = 178.3314
MEAN_ANOMALY   = 181.7970

EPHEMERIS_TYPE = 0
CLASSIFICATION_TYPE = U
NORAD_CAT_ID   = 15945
ELEMENT_SET_NO = 999
REV_AT_EPOCH   = 15712
BSTAR          = .79181E-4
MEAN_MOTION_DOT = .723E-5
MEAN_MOTION_DDOT = 0

CCSDS_OMM_VERS = 2.0
CREATION_DATE  = 
ORIGINATOR     = 

OBJECT_NAME    = SL-16 R/B
OBJECT_ID      = 1985-097B
CENTER_NAME    = EARTH
REF_FRAME      = TEME
TIME_SYSTEM    = UTC
MEAN_ELEMENT_THEORY = SGP/SGP4

EPOCH          = 2025-11-23T13:59:06.798912
MEAN_MOTION    = 14.16581514
ECCENTRICITY   = .0005657
INCLINATION    = 71.0041
RA_OF_ASC_NODE = 3.9353
ARG_OF_PERICENTER = 44.8362
MEAN_ANOMALY   = 67.7458

EPHEMERIS_TYPE = 0
CLASSIFICATION_TYPE = U
NORAD_CAT_ID   = 16182
ELEMENT_SET_NO = 999
REV_AT_EPOCH   = 7220
BSTAR          = .11758E-3
MEAN_MOTION_DOT = .187E-5
MEAN_MOTION_DDOT = 0

CCSDS_OMM_VERS = 2.0
CREATION_DATE  = 
ORIGINATOR     = 

OBJECT_NAME    = SL-14 R/B
OBJECT_ID      = 1986-006B
CENTER_NAME    = EARTH
REF_FRAME      = TEME
TIME_SYSTEM    = UTC
MEAN_ELEMENT_THEORY = SGP/SGP4

EPOCH          = 2025-11-24T01:20:22.703712
MEAN_MOTION    = 14.86634162
ECCENTRICITY   = .0075194
INCLINATION    = 82.5275
RA_OF_ASC_NODE = 359.1324
ARG_OF_PERICENTER = 262.7201
MEAN_ANOMALY   = 96.5464

EPHEMERIS_TYPE = 0
CLASSIFICATION_TYPE = U
NORAD_CAT_ID   = 16496
ELEMENT_SET_NO = 999
REV_AT_EPOCH   = 13351
BSTAR          = .83207E-4
MEAN_MOTION_DOT = .802E-5
MEAN_MOTION_DDOT = 0

CCSDS_OMM_VERS = 2.0
CREATION_DATE  = 
ORIGINATOR     = 

OBJECT_NAME    = COSMOS 1743
OBJECT_ID      = 1986-034A
CENTER_NAME    = EARTH
REF_FRAME      = TEME
TIME_SYSTEM    = UTC
MEAN_ELEMENT_THEORY = SGP/SGP4

EPOCH          = 2025-11-24T00:21:03.872160
MEAN_MOTION    = 15.50882661
ECCENTRICITY   = .0005741
INCLINATION    = 82.5353
RA_OF_ASC_NODE = 184.0199
ARG_OF_PERICENTER = 336.6638
MEAN_ANOMALY   = 23.4352

EPHEMERIS_TYPE = 0
CLASSIFICATION_TYPE = U
NORAD_CAT_ID   = 16719
ELEMENT_SET_NO = 999
REV_AT_EPOCH   = 16383
BSTAR          = .50749E-3
MEAN_MOTION_DOT = .29447E-3
MEAN_MOTION_DDOT = 0

