SL-3 R/B                
1 13403U 82079B   25328.09289786  .00005590  00000+0  23245-3 0  9993
2 13403  81.1462 317.6380 0026042 159.6034 200.6245 15.23291298361613
SL-14 R/B               
1 13553U 82092B   25327.83338432  .00000667  00000+0  72475-4 0  9998
2 13553  82.5689 240.3911 0018937 294.8416 127.3934 14.86526155313200
SL-3 R/B                
1 13819U 83010B   25327.90200403  .00014694  00000+0  33326-3 0  9994
2 13819  81.1026 131.5999 0018042  56.2340 304.0618 15.42765537341616
SL-3 R/B                
1 14208U 83075B   25328.08857499  .00011727  00000+0  33870-3 0  9999
2 14208  97.6103 323.9537 0021009 245.1753 114.7305 15.35608251313930
COSMOS 1536             
1 14699U 84013A   25328.07350355  .00006173  00000+0  26661-3 0  9993
2 14699  82.5464 212.6699 0013512 299.2760  60.7125 15.22227021256549
SL-14 R/B               
1 14820U 84027B   25328.03625720  .00000562  00000+0  61705-4 0  9996
2 14820  82.5413 344.0980 0017077 327.8574  32.1600 14.85845194231946
SL-8 R/B                
1 15483U 85006B   25327.83450089  .00000359  00000+0  12803-3 0  9999
2 15483  74.0451  95.9156 0017906  33.8302  77.5809 14.37704165138816
SL-12 R/B(2)            
1 15772U 85042D   25328.03269198  .00000057  00000+0  47104-4 0  9990
2 15772  71.1077 310.9412 0037566 288.8881 128.1290 14.21943024 99378
SL-14 R/B               
1 15945U 85069B   25327.91845138  .00000723  00000+0  79181-4 0  9991
2 15945  82.5248 124.3972 0018827 178.3314 181.7970 14.86290866157125
SL-16 R/B               
1 16182U 85097B   25327.58271758  .00000187  00000+0  11758-3 0  9999
2 16182  71.0041   3.9353 0005657  44.8362  67.7458 14.16581514 72200
SL-14 R/B               
1 16496U 86006B   25328.05581833  .00000802  00000+0  83207-4 0  9992
2 16496  82.5275 359.1324 0075194 262.7201  96.5464 14.86634162133518
COSMOS 1743             
1 16719U 86034A   25328.01462815  .00029447  00000+0  50749-3 0  9995
2 16719  82.5353 184.0199 0005741 336.6638  23.4352 15.50882661163838
